sat24126
1 24126U 94029FZ  20046.88621212  .00000262  00000-0  64885-4 0  9996
2 24126  81.8114 348.5599 0353495 164.5699 260.2507 14.16885886224489
